{
  "type": "FeatureCollection",
  "features": [
    {
      "type": "Feature",
      "properties": {
        "norad_id": 28054,
        "name": "DMSP 5D-3 F16 (USA 172)",
        "group": "weather",
        "lat": 73.08980241491373,
        "lon": -135.5595476846133,
        "alt_km": 841.7007892662514,
        "timestamp": "2025-12-21T11:31:42.482928+00:00",
        "meta_object_name": "DMSP 5D-3 F16 (USA 172)",
        "meta_object_id": "2003-048A",
        "meta_epoch": "2025-12-21T02:57:38.746368",
        "meta_mean_motion": 14.14426948,
        "meta_eccentricity": 0.0006284,
        "meta_inclination": 99.0038,
        "meta_ra_of_asc_node": 12.6461,
        "meta_arg_of_pericenter": 294.1485,
        "meta_mean_anomaly": 153.4353,
        "meta_ephemeris_type": 0,
        "meta_classification_type": "U",
        "meta_norad_cat_id": 28054,
        "meta_element_set_no": 999,
        "meta_rev_at_epoch": 14431,
        "meta_bstar": 6.4598e-05,
        "meta_mean_motion_dot": 7.8e-07,
        "meta_mean_motion_ddot": 0,
        "tle_line1": "1 28054U 03048A   25355.12336512  .00000078  00000+0  64598-4 0  9997",
        "tle_line2": "2 28054  99.0038  12.6461 0006284 294.1485 153.4353 14.14426948144313"
      },
      "geometry": {
        "type": "Point",
        "coordinates": [
          -135.5595476846133,
          73.08980241491373
        ]
      }
    },
    {
      "type": "Feature",
      "properties": {
        "norad_id": 28912,
        "name": "METEOSAT-9 (MSG-2)",
        "group": "weather",
        "lat": -8.487158722014362,
        "lon": -53.10765665709722,
        "alt_km": 35413.89794716016,
        "timestamp": "2025-12-21T11:31:42.482980+00:00",
        "meta_object_name": "METEOSAT-9 (MSG-2)",
        "meta_object_id": "2005-049B",
        "meta_epoch": "2025-12-20T18:34:58.766592",
        "meta_mean_motion": 1.00265537,
        "meta_eccentricity": 0.01042854,
        "meta_inclination": 8.9429,
        "meta_ra_of_asc_node": 55.8777,
        "meta_arg_of_pericenter": 282.8799,
        "meta_mean_anomaly": 74.1046,
        "meta_ephemeris_type": 0,
        "meta_classification_type": "U",
        "meta_norad_cat_id": 28912,
        "meta_element_set_no": 999,
        "meta_rev_at_epoch": 520,
        "meta_bstar": 0,
        "meta_mean_motion_dot": 1.08e-06,
        "meta_mean_motion_ddot": 0,
        "tle_line1": "1 28912U 05049B   25354.77429128  .00000108  00000+0  00000+0 0  9996",
        "tle_line2": "2 28912   8.9429  55.8777 0104285 282.8799  74.1046  1.00265537  5208"
      },
      "geometry": {
        "type": "Point",
        "coordinates": [
          -53.10765665709722,
          -8.487158722014362
        ]
      }
    },
    {
      "type": "Feature",
      "properties": {
        "norad_id": 29522,
        "name": "DMSP 5D-3 F17 (USA 191)",
        "group": "weather",
        "lat": 58.83153253470335,
        "lon": -14.044417526574415,
        "alt_km": 842.1314780958228,
        "timestamp": "2025-12-21T11:31:42.482999+00:00",
        "meta_object_name": "DMSP 5D-3 F17 (USA 191)",
        "meta_object_id": "2006-050A",
        "meta_epoch": "2025-12-21T02:45:35.179200",
        "meta_mean_motion": 14.14923058,
        "meta_eccentricity": 0.0009756,
        "meta_inclination": 98.739,
        "meta_ra_of_asc_node": 0.3297,
        "meta_arg_of_pericenter": 199.6544,
        "meta_mean_anomaly": 160.4255,
        "meta_ephemeris_type": 0,
        "meta_classification_type": "U",
        "meta_norad_cat_id": 29522,
        "meta_element_set_no": 999,
        "meta_rev_at_epoch": 98723,
        "meta_bstar": 8.2829e-05,
        "meta_mean_motion_dot": 1.17e-06,
        "meta_mean_motion_ddot": 0,
        "tle_line1": "1 29522U 06050A   25355.11499050  .00000117  00000+0  82829-4 0  9991",
        "tle_line2": "2 29522  98.7390   0.3297 0009756 199.6544 160.4255 14.14923058987233"
      },
      "geometry": {
        "type": "Point",
        "coordinates": [
          -14.044417526574415,
          58.83153253470335
        ]
      }
    },
    {
      "type": "Feature",
      "properties": {
        "norad_id": 32958,
        "name": "FENGYUN 3A",
        "group": "weather",
        "lat": -77.93742597144525,
        "lon": -19.60902619440138,
        "alt_km": 828.7959923459111,
        "timestamp": "2025-12-21T11:31:42.483013+00:00",
        "meta_object_name": "FENGYUN 3A",
        "meta_object_id": "2008-026A",
        "meta_epoch": "2025-12-20T20:41:12.694272",
        "meta_mean_motion": 14.195169,
        "meta_eccentricity": 0.0007661,
        "meta_inclination": 98.6708,
        "meta_ra_of_asc_node": 294.218,
        "meta_arg_of_pericenter": 284.299,
        "meta_mean_anomaly": 75.7335,
        "meta_ephemeris_type": 0,
        "meta_classification_type": "U",
        "meta_norad_cat_id": 32958,
        "meta_element_set_no": 999,
        "meta_rev_at_epoch": 91010,
        "meta_bstar": 5.2159e-05,
        "meta_mean_motion_dot": 6.7e-07,
        "meta_mean_motion_ddot": 0,
        "tle_line1": "1 32958U 08026A   25354.86195248  .00000067  00000+0  52159-4 0  9993",
        "tle_line2": "2 32958  98.6708 294.2180 0007661 284.2990  75.7335 14.19516900910104"
      },
      "geometry": {
        "type": "Point",
        "coordinates": [
          -19.60902619440138,
          -77.93742597144525
        ]
      }
    },
    {
      "type": "Feature",
      "properties": {
        "norad_id": 35491,
        "name": "GOES 14",
        "group": "weather",
        "lat": 1.103336618702472,
        "lon": 147.94077858941966,
        "alt_km": 35836.193255092134,
        "timestamp": "2025-12-21T11:31:42.483027+00:00",
        "meta_object_name": "GOES 14",
        "meta_object_id": "2009-033A",
        "meta_epoch": "2025-12-21T04:48:07.325856",
        "meta_mean_motion": 1.0009693,
        "meta_eccentricity": 5.21e-05,
        "meta_inclination": 1.2244,
        "meta_ra_of_asc_node": 85.32,
        "meta_arg_of_pericenter": 184.6247,
        "meta_mean_anomaly": 137.0168,
        "meta_ephemeris_type": 0,
        "meta_classification_type": "U",
        "meta_norad_cat_id": 35491,
        "meta_element_set_no": 999,
        "meta_rev_at_epoch": 480,
        "meta_bstar": 0,
        "meta_mean_motion_dot": 2.3e-07,
        "meta_mean_motion_ddot": 0,
        "tle_line1": "1 35491U 09033A   25355.20008479  .00000023  00000+0  00000+0 0  9990",
        "tle_line2": "2 35491   1.2244  85.3200 0000521 184.6247 137.0168  1.00096930  4801"
      },
      "geometry": {
        "type": "Point",
        "coordinates": [
          147.94077858941966,
          1.103336618702472
        ]
      }
    },
    {
      "type": "Feature",
      "properties": {
        "norad_id": 35951,
        "name": "DMSP 5D-3 F18 (USA 210)",
        "group": "weather",
        "lat": -74.4971684706122,
        "lon": 6.163926602613296,
        "alt_km": 854.2283657648786,
        "timestamp": "2025-12-21T11:31:42.483040+00:00",
        "meta_object_name": "DMSP 5D-3 F18 (USA 210)",
        "meta_object_id": "2009-057A",
        "meta_epoch": "2025-12-21T05:06:13.019616",
        "meta_mean_motion": 14.14774383,
        "meta_eccentricity": 0.0011845,
        "meta_inclination": 98.8843,
        "meta_ra_of_asc_node": 331.5714,
        "meta_arg_of_pericenter": 40.4374,
        "meta_mean_anomaly": 319.7677,
        "meta_ephemeris_type": 0,
        "meta_classification_type": "U",
        "meta_norad_cat_id": 35951,
        "meta_element_set_no": 999,
        "meta_rev_at_epoch": 83442,
        "meta_bstar": 0.00013302,
        "meta_mean_motion_dot": 2.12e-06,
        "meta_mean_motion_ddot": 0,
        "tle_line1": "1 35951U 09057A   25355.21265069  .00000212  00000+0  13302-3 0  9991",
        "tle_line2": "2 35951  98.8843 331.5714 0011845  40.4374 319.7677 14.14774383834423"
      },
      "geometry": {
        "type": "Point",
        "coordinates": [
          6.163926602613296,
          -74.4971684706122
        ]
      }
    },
    {
      "type": "Feature",
      "properties": {
        "norad_id": 36411,
        "name": "EWS-G2 (GOES 15)",
        "group": "weather",
        "lat": -0.7277263988682379,
        "lon": -35.366744704172746,
        "alt_km": 35775.13043967257,
        "timestamp": "2025-12-21T11:31:42.483054+00:00",
        "meta_object_name": "EWS-G2 (GOES 15)",
        "meta_object_id": "2010-008A",
        "meta_epoch": "2025-12-20T23:47:36.324960",
        "meta_mean_motion": 1.00270878,
        "meta_eccentricity": 0.0005462,
        "meta_inclination": 0.8328,
        "meta_ra_of_asc_node": 86.0873,
        "meta_arg_of_pericenter": 177.5717,
        "meta_mean_anomaly": 244.4227,
        "meta_ephemeris_type": 0,
        "meta_classification_type": "U",
        "meta_norad_cat_id": 36411,
        "meta_element_set_no": 999,
        "meta_rev_at_epoch": 5785,
        "meta_bstar": 0,
        "meta_mean_motion_dot": 6.1e-07,
        "meta_mean_motion_ddot": 0,
        "tle_line1": "1 36411U 10008A   25354.99139265  .00000061  00000+0  00000+0 0  9992",
        "tle_line2": "2 36411   0.8328  86.0873 0005462 177.5717 244.4227  1.00270878 57855"
      },
      "geometry": {
        "type": "Point",
        "coordinates": [
          -35.366744704172746,
          -0.7277263988682379
        ]
      }
    }
  ]
}